[{"OBJECT_NAME":"OBJECT L","OBJECT_ID":"2023-085L","EPOCH":"2026-03-09T23:02:21.999840","MEAN_MOTION":15.29079976,"ECCENTRICITY":0.0005428,"INCLINATION":97.486,"RA_OF_ASC_NODE":178.8598,"ARG_OF_PERICENTER":50.8528,"MEAN_ANOMALY":309.3193,"EPHEMERIS_TYPE":0,"CLASSIFICATION_TYPE":"U","NORAD_CAT_ID":57014,"ELEMENT_SET_NO":999,"REV_AT_EPOCH":15144,"BSTAR":0.00063462603,"MEAN_MOTION_DOT":0.00017871,"MEAN_MOTION_DDOT":0},{"OBJECT_NAME":"STARLINK-30517","OBJECT_ID":"2023-153E","EPOCH":"2026-03-09T22:00:01.999584","MEAN_MOTION":15.26715398,"ECCENTRICITY":0.00014756,"INCLINATION":43.0005,"RA_OF_ASC_NODE":65.9087,"ARG_OF_PERICENTER":252.6066,"MEAN_ANOMALY":315.7232,"EPHEMERIS_TYPE":0,"CLASSIFICATION_TYPE":"U","NORAD_CAT_ID":57995,"ELEMENT_SET_NO":999,"REV_AT_EPOCH":578,"BSTAR":0.0015549863,"MEAN_MOTION_DOT":0.00041655,"MEAN_MOTION_DDOT":0}]
